TIANMU-1 20             
1 58661U 23208B   26201.94042236  .00005670  00000+0  17908-3 0  9997
2 58661  97.4467 319.0993 0006882 190.7938 169.3158 15.33219641142599
TIANMU-1 21             
1 58662U 23208C   26201.94214742  .00007028  00000+0  20519-3 0  9992
2 58662  97.4528 321.9304 0007264 183.4325 176.6870 15.35618016142740
TIANMU-1 22             
1 58663U 23208D   26201.92237837  .00005172  00000+0  17274-3 0  9993
2 58663  97.4521 318.3173 0003287 195.2110 164.9033 15.31476767142496
TIANMU-1 15             
1 58700U 24004A   26201.97968697  .00003806  00000+0  14662-3 0  9990
2 58700  97.4677  28.1711 0006541 205.1367 154.9555 15.26950801140930
TIANMU-1 16             
1 58701U 24004B   26201.96876146  .00003611  00000+0  13885-3 0  9997
2 58701  97.4625  27.3738 0004816 219.6365 140.4523 15.27053624140938
TIANMU-1 17             
1 58702U 24004C   26201.95425214  .00003682  00000+0  14155-3 0  9992
2 58702  97.4652  27.8564 0004235 224.9267 135.1629 15.27051345140921
TIANMU-1 18             
1 58703U 24004D   26201.93066236  .00003585  00000+0  13824-3 0  9990
2 58703  97.4669  28.0961 0004269 200.5218 159.5850 15.26965407140925
INSAT-3DS               
1 58990U 24033A   26201.84843096 -.00000156  00000+0  00000+0 0  9997
2 58990   0.0760 263.7096 0001293 220.1689 202.2239  1.00270778 47409
METEOR-M2 4             
1 59051U 24039A   26201.94756086  .00000019  00000+0  27971-4 0  9993
2 59051  98.7029 160.8249 0008229  74.5299 285.6787 14.22432609124063
GOES 19                 
1 60133U 24119A   26201.88855780 -.00000248  00000+0  00000+0 0  9993
2 60133   0.0192 136.3883 0000287  44.1686   2.7835  1.00272515  7303
MTG-S1                  
1 64723U 25143A   26201.83210100 -.00000007  00000+0  00000+0 0  9999
2 64723   0.5813 346.4189 0003229 257.6070 353.7807  1.00275317  3753
METOP-SGA1              
1 65159U 25172A   26195.76442858  .00000019  00000+0  29163-4 0  9994
2 65159  98.6631 254.9090 0007098 333.3306  26.7504 14.19819127 47700
FENGYUN 3H              
1 65815U 25219A   26201.79431137  .00000012  00000+0  26132-4 0  9990
2 65815  98.6770 141.9111 0001023  62.0460 298.0820 14.19925299 42158
