OBJECT_NAME,OBJECT_ID,EPOCH,MEAN_MOTION,ECCENTRICITY,INCLINATION,RA_OF_ASC_NODE,ARG_OF_PERICENTER,MEAN_ANOMALY,EPHEMERIS_TYPE,CLASSIFICATION_TYPE,NORAD_CAT_ID,ELEMENT_SET_NO,REV_AT_EPOCH,BSTAR,MEAN_MOTION_DOT,MEAN_MOTION_DDOT
TIANMU-1 20,2023-208B,2026-07-20T22:34:12.491904,15.33219641,.00068824,97.4467,319.0993,190.7938,169.3158,0,U,58661,999,14259,.17907515E-3,.567E-4,0
TIANMU-1 21,2023-208C,2026-07-20T22:36:41.537088,15.35618016,.00072649,97.4528,321.9304,183.4325,176.6870,0,U,58662,999,14274,.20519089E-3,.7028E-4,0
TIANMU-1 22,2023-208D,2026-07-20T22:08:13.491168,15.31476767,.00032878,97.4521,318.3173,195.2110,164.9033,0,U,58663,999,14249,.17274208E-3,.5172E-4,0
TIANMU-1 15,2024-004A,2026-07-20T23:30:44.954208,15.26950801,.00065417,97.4677,28.1711,205.1367,154.9555,0,U,58700,999,14093,.14661733E-3,.3806E-4,0
TIANMU-1 16,2024-004B,2026-07-20T23:15:00.990144,15.27053624,.0004816,97.4625,27.3738,219.6365,140.4523,0,U,58701,999,14093,.13885093E-3,.3611E-4,0
TIANMU-1 17,2024-004C,2026-07-20T22:54:07.384896,15.27051345,.00042356,97.4652,27.8564,224.9267,135.1629,0,U,58702,999,14092,.14154803E-3,.3682E-4,0
TIANMU-1 18,2024-004D,2026-07-20T22:20:09.227904,15.26965407,.00042698,97.4669,28.0961,200.5218,159.5850,0,U,58703,999,14092,.13823935E-3,.3585E-4,0
INSAT-3DS,2024-033A,2026-07-20T20:21:44.434944,1.00270778,.00012938,0.0760,263.7096,220.1689,202.2239,0,U,58990,999,4740,0,-.156E-5,0
METEOR-M2 4,2024-039A,2026-07-20T22:44:29.258304,14.22432609,.00082297,98.7029,160.8249,74.5299,285.6787,0,U,59051,999,12406,.27971224E-4,.19E-6,0
GOES 19,2024-119A,2026-07-20T21:19:31.393920,1.00272515,.00002871,0.0192,136.3883,44.1686,2.7835,0,U,60133,999,730,0,-.248E-5,0
MTG-S1,2025-143A,2026-07-20T19:58:13.526400,1.00275317,.00032299,0.5813,346.4189,257.6070,353.7807,0,U,64723,999,375,0,-.7E-7,0
METOP-SGA1,2025-172A,2026-07-14T18:20:46.629312,14.19819127,.00070989,98.6631,254.9090,333.3306,26.7504,0,U,65159,999,4770,.2916334E-4,.19E-6,0
FENGYUN 3H,2025-219A,2026-07-20T19:03:48.502368,14.19925299,.00010232,98.6770,141.9111,62.0460,298.0820,0,U,65815,999,4215,.26131697E-4,.12E-6,0
